CCSDS_OEM_VERS = 2.0
CREATION_DATE  = 2025-12-15T17:24:53.524
ORIGINATOR     = NASA/JSC/FOD/TOPO

META_START
OBJECT_NAME          = ISS
OBJECT_ID            = 1998-067-A
CENTER_NAME          = Earth
REF_FRAME            = EME2000
TIME_SYSTEM          = UTC
START_TIME           = 2025-12-15T12:00:00.000
USEABLE_START_TIME   = 2025-12-15T12:00:00.000
USEABLE_STOP_TIME    = 2025-12-30T12:00:00.000
STOP_TIME            = 2025-12-30T12:00:00.000
META_STOP

COMMENT Source: This file was produced by the TOPO office within FOD at JSC.
COMMENT Units are in kg and m^2
COMMENT MASS=493627.00
COMMENT DRAG_AREA=1216.50
COMMENT DRAG_COEFF=2.00
COMMENT SOLAR_RAD_AREA=0.00
COMMENT SOLAR_RAD_COEFF=0.00
COMMENT Orbits start at the ascending node epoch
COMMENT ISS first asc. node: EPOCH = 2025-12-15T12:11:03.460 $ ORBIT = 2328 $ LAN(DEG) = -138.40090
COMMENT ISS last asc. node : EPOCH = 2025-12-30T11:14:02.962 $ ORBIT = 2560 $ LAN(DEG) = 147.00998
COMMENT Begin sequence of events
COMMENT TRAJECTORY EVENT SUMMARY:
COMMENT 
COMMENT |       EVENT        |       TIG        | ORB |   DV    |   HA    |   HP    |
COMMENT |                    |       GMT        |     |   M/S   |   KM    |   KM    |
COMMENT |                    |                  |     |  (F/S)  |  (NM)   |  (NM)   |
COMMENT =============================================================================
COMMENT  GMT 363 SPX-33 Settl  363:17:35:59.000             0.1     421.4     411.8
COMMENT                                                    (0.3)   (227.5)   (222.3)
COMMENT 
COMMENT  GMT 363 SPX-33 Reboo  363:17:39:00.000             1.6     421.4     412.2
COMMENT                                                    (5.2)   (227.6)   (222.6)
COMMENT 
COMMENT =============================================================================
COMMENT End sequence of events
2025-12-29T09:24:00.000 -4661.218375729980 -271.760900453034 4930.541939528780 -2.01708305003488 -7.02884244092522 -2.28748822224593
2025-12-29T09:28:00.000 -4969.954586494200 -1928.311798889280 4208.454478050790 -0.53990365485224 -6.69144528024716 -3.69316771614666
2025-12-29T09:32:00.000 -4917.166146217500 -3444.594999179440 3179.379829379390 0.97722981616116 -5.86700576086636 -4.83000883413727
2025-12-29T09:36:00.000 -4506.544092212090 -4710.204366343720 1918.288377346070 2.42377815608033 -4.61524269880229 -5.61473016427976
2025-12-29T09:40:00.000 -3767.891464056330 -5632.959860496380 517.173141497425 3.69402129164483 -3.02743020763044 -5.98967107378709
2025-12-29T09:44:00.000 -2755.007507260510 -6145.750465961870 -921.690955707285 4.69502188519353 -1.21990143974458 -5.92742065448512
2025-12-29T09:48:00.000 -1541.719975102940 -6211.516160759980 -2293.334496776290 5.35389389911104 0.67488934140378 -5.43306262529113
2025-12-29T09:52:00.000 -216.379730044045 -5825.901999106570 -3497.870841712690 5.62321901261248 2.51860199264227 -4.54354588373752
2025-12-29T09:56:00.000 1124.686996645120 -5017.416949302250 -4447.815924004050 5.48431330288462 4.17743189652351 -3.32455716033190
2025-12-29T10:00:00.000 2384.229193737360 -3845.143314931260 -5074.378646638630 4.94808823015331 5.53190258661126 -1.86513765152911
2025-12-29T10:04:00.000 3471.051581006530 -2394.295892130700 -5332.281456942590 4.05373557218648 6.48493933431743 -0.27101482999735
2025-12-29T10:08:00.000 4306.470363600360 -770.039460397553 -5202.880162152340 2.86568310558016 6.96825740613908 1.34288150416040
2025-12-29T10:12:00.000 4829.858824975930 909.990278084331 -4695.440458729270 1.46913040417390 6.94680748662155 2.86021905884816
2025-12-29T10:16:00.000 5002.973813402310 2524.002840627730 -3846.524250771680 -0.03562859407972 6.42125497683449 4.17116599787376
2025-12-29T10:20:00.000 4812.791063082470 3954.712098836760 -2717.504925375170 -1.53992528718396 5.42834890462172 5.18001751734310
2025-12-29T10:24:00.000 4272.631119934550 5097.820258056950 -1390.321097990300 -2.93419500607657 4.03907519842268 5.81221881249920
2025-12-29T10:28:00.000 3421.406288656860 5869.760010684490 38.358346323822 -4.11611634963561 2.35421105633372 6.02045774404078
2025-12-29T10:32:00.000 2320.905699818520 6214.018891476640 1464.220488537720 -4.99865113879564 0.49700057226916 5.78882090257840
2025-12-29T10:36:00.000 1051.269074042000 6105.426040985950 2783.067265737010 -5.51690979097057 -1.39630717042342 5.13417992744741
2025-12-29T10:40:00.000 -294.966545368595 5552.022664725310 3898.577985215680 -5.63311336800267 -3.18699732659898 4.10485569377083
2025-12-29T10:44:00.000 -1619.737747291330 4594.371128843890 4729.431077216610 -5.33922762389076 -4.74448384237275 2.77666156613668
2025-12-29T10:48:00.000 -2826.667456848130 3302.429653154490 5215.206962238260 -4.65717764506784 -5.95583985707086 1.24683371061460
2025-12-29T10:52:00.000 -3828.054969482630 1770.336486825050 5320.673169808720 -3.63683784013404 -6.73364022827829 -0.37325845623979
2025-12-29T10:56:00.000 -4551.156058577170 109.545696759659 5038.237417497490 -2.35221490806235 -7.02183092931934 -1.96598791879267
2025-12-29T11:00:00.000 -4943.375285841440 -1559.204427533110 4388.465602702660 -0.89623034906923 -6.79952360607604 -3.41571820310807
2025-12-29T11:04:00.000 -4976.065523609530 -3114.551569507540 3418.626629548510 0.62559705853984 -6.08249989430158 -4.61687027690290
2025-12-29T11:08:00.000 -4646.687507170800 -4443.281184897820 2199.349757937340 2.10252971492167 -4.92253632487744 -5.48156628355479
2025-12-29T11:12:00.000 -3979.105717301050 -5448.619894706180 819.550922726758 3.42665559141274 -3.40410199609866 -5.94630266693984
2025-12-29T11:16:00.000 -3021.916230661000 -6057.413140411690 -620.065698457225 4.50110854583373 -1.63832978457015 -5.97700423321642
2025-12-29T11:20:00.000 -1844.883456414840 -6225.565254921430 -2014.455100668040 5.24751082052700 0.24533030054133 -5.57183801897995
2025-12-29T11:24:00.000 -533.743848659320 -5941.243302659110 -3262.032711476440 5.61195555800747 2.10920767917949 -4.76122493721969
2025-12-29T11:28:00.000 816.167479879530 -5225.597348577780 -4272.139003913340 5.56880067723211 3.81785117423647 -3.60514132542793
2025-12-29T11:32:00.000 2106.916504099270 -4131.009112889230 -4971.584666764590 5.12206423526063 5.24800958945407 -2.18821811760767
2025-12-29T11:36:00.000 3245.029030806070 -2737.109636322820 -5309.809475355880 4.30458687560638 6.29712562562183 -0.61322954067365
2025-12-29T11:40:00.000 4148.118931036960 -1144.970886046960 -5262.370574723990 3.17535572430616 6.89005410450167 1.00621278059101
2025-12-29T11:44:00.000 4750.693319180950 530.099548236449 -4832.618349640350 1.81535621420760 6.98395864451994 2.55342432183187
2025-12-29T11:48:00.000 5008.810790663780 2166.705618354820 -4051.491977710700 0.32220945354777 6.57128598299474 3.91649501185438
2025-12-29T11:52:00.000 4903.311063587510 3645.991290420450 -2975.428369112830 -1.19638358496525 5.68070689426182 4.99613213429805
2025-12-29T11:56:00.000 4441.352927108830 4860.202188989450 -1682.454557084280 -2.63007744463239 4.37563570994598 5.71281978254666
2025-12-29T12:00:00.000 3656.104298132650 5720.619637000920 -266.674525985264 -3.87384044421647 2.75042438018766 6.01304792360758
2025-12-29T12:04:00.000 2604.490354275350 6164.249539791420 1168.576890888890 -4.83604662102924 0.92377694823175 5.87399102484608
2025-12-29T12:08:00.000 1363.064120915100 6158.626947846280 2518.411440523550 -5.44585845415459 -0.97027881707425 5.30563494232297
2025-12-29T12:12:00.000 22.314656781859 5704.250509524120 3684.216703722560 -5.65870960664210 -2.79285206083704 4.34992774387275
2025-12-29T12:16:00.000 -1320.070266459610 4834.463715487660 4580.963658957290 -5.45949496589382 -4.41087941969813 3.07732489573045
2025-12-29T12:20:00.000 -2566.403204915310 3612.851340197870 5143.401093077360 -4.86324536682889 -5.70691842369508 1.58110717658476
2025-12-29T12:24:00.000 -3626.092856610430 2128.474385882960 5330.711245219400 -3.91365774867603 -6.58733002714077 -0.02964411957988
2025-12-29T12:28:00.000 -4422.157572627550 489.349820766097 5129.368206694510 -2.67973326588159 -6.98868144669498 -1.63795274151515
2025-12-29T12:32:00.000 -4896.723115110400 -1185.345950882900 4554.048848772380 -1.25076823006314 -6.88192793397235 -3.12710131619112
2025-12-29T12:36:00.000 -5015.184878743760 -2773.828949354100 3646.605702193550 0.26972868065452 -6.27455476887707 -4.38871275877163
2025-12-29T12:40:00.000 -4768.777910101320 -4160.495255078690 2473.109294096950 1.77120614861531 -5.21035181543592 -5.33057196931975
2025-12-29T12:44:00.000 -4175.317923683110 -5244.367468389010 1119.116393996760 3.14408942727153 -3.76671935965334 -5.88357296250693
2025-12-29T12:48:00.000 -3277.980895761260 -5946.556519456170 -316.564314375118 4.28796674662281 -2.04922323067190 -6.00712695468154
2025-12-29T12:52:00.000 -2142.158872502560 -6216.129675381860 -1729.161954418910 5.11931802207580 -0.18376580536524 -5.69249172197150
2025-12-29T12:56:00.000 -850.602977105214 -6033.844411734380 -3015.723851112350 5.57792010441721 1.69318611738873 -4.96342323472112
2025-12-29T13:00:00.000 502.739013098732 -5413.432897558150 -4082.708561609600 5.63121927745061 3.44506785587695 -3.87401332990218
2025-12-29T13:04:00.000 1819.641614596960 -4400.394136614250 -4852.762770023690 5.27624796358923 4.94530719230936 -2.50416911165311
2025-12-29T13:08:00.000 3004.711933818630 -3068.501932787860 -5270.205080497190 4.53935190358307 6.08621589266296 -0.95342894834991
2025-12-29T13:12:00.000 3972.177792511350 -1514.373590978660 -5304.877300032230 3.47382365829219 6.78613546880123 0.66629527588609
2025-12-29T13:16:00.000 4651.922651479620 149.437234838042 -4954.206440946320 2.15609540974279 6.99464914142080 2.23833410779150
2025-12-29T13:20:00.000 4994.454882986120 1802.391246364100 -4243.405980035000 0.68065845134218 6.69603921399371 3.64912461619899
2025-12-29T13:24:00.000 4974.514181277620 3324.503933613480 -3223.787549861690 -0.84618211339365 5.91071881649317 4.79602086725384
